ORBCOMM FM103           
1 40091U 14040F   24203.30976139  .00001990  00000+0  47759-3 0  9995
2 40091  47.0044 138.9340 0001923 219.8973 140.1771 14.56782996515837
ORBCOMM FM114           
1 41179U 15081A   24203.88866940  .00002479  00000+0  58438-3 0  9999
2 41179  47.0025  45.4329 0001952 259.8175 100.2489 14.56881429456280
ORBCOMM FM119           
1 41180U 15081B   24203.79434049  .00001927  00000+0  46371-3 0  9992
2 41180  47.0014 315.1003 0001886 302.0764  57.9938 14.56770040457528
ORBCOMM FM105           
1 41181U 15081C   24203.55262014  .00000876  00000+0  29663-3 0  9995
2 41181  47.0021 289.7718 0002663 272.7584  87.2991 14.44489542452939
ORBCOMM FM118           
1 41183U 15081E   24203.84434057  .00002275  00000+0  53989-3 0  9990
2 41183  47.0038  45.3762 0001502  95.0190 265.0867 14.56850826456251
ORBCOMM FM112           
1 41184U 15081F   24203.77118023  .00002921  00000+0  68355-3 0  9996
2 41184  46.9997 314.4111 0002364 286.7871  73.2754 14.56771089457465
ORBCOMM FM113           
1 41185U 15081G   24203.74846730  .00002763  00000+0  64858-3 0  9995
2 41185  47.0015 314.7974 0001910 293.1758  66.8926 14.56768718457443
